ONEWEB-0043             
1 45149U 20008U   23329.74017133 -.00000535  00000+0 -15701-2 0  9998
2 45149  87.8926 221.8546 0001879  58.8236 301.3075 13.10370104185801
ONEWEB-0044             
1 45150U 20008V   23329.76945113  .00000615  00000+0  17252-2 0  9990
2 45150  87.8923 221.8461 0001767  62.3015 297.8291 13.10375233186108
ONEWEB-0045             
1 45151U 20008W   23329.75598384 -.00000201  00000+0 -60173-3 0  9998
2 45151  87.8979 206.7182 0001515  79.8637 280.2661 13.11413676187930
ONEWEB-0047             
1 45152U 20008X   23329.76132324  .00000409  00000+0  11345-2 0  9992
2 45152  87.8926 221.8491 0001693  67.8250 292.3056 13.10376481185828
ONEWEB-0048             
1 45153U 20008Y   23329.75644445  .00000110  00000+0  27803-3 0  9990
2 45153  87.8929 221.8614 0001634  69.5863 290.5440 13.10374786185433
ONEWEB-0049             
1 45154U 20008Z   23329.75805920  .00000275  00000+0  75139-3 0  9995
2 45154  87.8934 221.8326 0001771  70.4858 289.6460 13.10375982185651
ONEWEB-0051             
1 45155U 20008AA  23329.67806484 -.00000116  00000+0 -36221-3 0  9998
2 45155  87.8991 206.7703 0001468  84.7748 275.3547 13.11418496188600
ONEWEB-0052             
1 45156U 20008AB  23329.75479629 -.00000606  00000+0 -17735-2 0  9997
2 45156  87.8934 221.8178 0002403  62.5959 297.5413 13.10375845185569
