<?xml version="1.0" encoding="UTF-8"?>
<ndm xmlns:xsi="http://www.w3.org/2001/XMLSchema-instance" xsi:noNamespaceSchemaLocation="https://sanaregistry.org/r/ndmxml_unqualified/ndmxml-2.0.0-master-2.0.xsd">
<omm id="CCSDS_OMM_VERS" version="2.0">
<header><CREATION_DATE/><ORIGINATOR/></header><body><segment><metadata><OBJECT_NAME>ONEWEB-0043</OBJECT_NAME><OBJECT_ID>2020-008U</OBJECT_ID><CENTER_NAME>EARTH</CENTER_NAME><REF_FRAME>TEME</REF_FRAME><TIME_SYSTEM>UTC</TIME_SYSTEM><MEAN_ELEMENT_THEORY>SGP4</MEAN_ELEMENT_THEORY></metadata><data><meanElements><EPOCH>2023-11-25T17:45:50.802912</EPOCH><MEAN_MOTION>13.10370104</MEAN_MOTION><ECCENTRICITY>.0001879</ECCENTRICITY><INCLINATION>87.8926</INCLINATION><RA_OF_ASC_NODE>221.8546</RA_OF_ASC_NODE><ARG_OF_PERICENTER>58.8236</ARG_OF_PERICENTER><MEAN_ANOMALY>301.3075</MEAN_ANOMALY></meanElements><tleParameters><EPHEMERIS_TYPE>0</EPHEMERIS_TYPE><CLASSIFICATION_TYPE>U</CLASSIFICATION_TYPE><NORAD_CAT_ID>45149</NORAD_CAT_ID><ELEMENT_SET_NO>999</ELEMENT_SET_NO><REV_AT_EPOCH>18580</REV_AT_EPOCH><BSTAR>-.15701E-2</BSTAR><MEAN_MOTION_DOT>-.535E-5</MEAN_MOTION_DOT><MEAN_MOTION_DDOT>0</MEAN_MOTION_DDOT></tleParameters></data></segment></body></omm>
<omm id="CCSDS_OMM_VERS" version="2.0">
<header><CREATION_DATE/><ORIGINATOR/></header><body><segment><metadata><OBJECT_NAME>ONEWEB-0044</OBJECT_NAME><OBJECT_ID>2020-008V</OBJECT_ID><CENTER_NAME>EARTH</CENTER_NAME><REF_FRAME>TEME</REF_FRAME><TIME_SYSTEM>UTC</TIME_SYSTEM><MEAN_ELEMENT_THEORY>SGP4</MEAN_ELEMENT_THEORY></metadata><data><meanElements><EPOCH>2023-11-25T18:28:00.577632</EPOCH><MEAN_MOTION>13.10375233</MEAN_MOTION><ECCENTRICITY>.0001767</ECCENTRICITY><INCLINATION>87.8923</INCLINATION><RA_OF_ASC_NODE>221.8461</RA_OF_ASC_NODE><ARG_OF_PERICENTER>62.3015</ARG_OF_PERICENTER><MEAN_ANOMALY>297.8291</MEAN_ANOMALY></meanElements><tleParameters><EPHEMERIS_TYPE>0</EPHEMERIS_TYPE><CLASSIFICATION_TYPE>U</CLASSIFICATION_TYPE><NORAD_CAT_ID>45150</NORAD_CAT_ID><ELEMENT_SET_NO>999</ELEMENT_SET_NO><REV_AT_EPOCH>18610</REV_AT_EPOCH><BSTAR>.17252E-2</BSTAR><MEAN_MOTION_DOT>.615E-5</MEAN_MOTION_DOT><MEAN_MOTION_DDOT>0</MEAN_MOTION_DDOT></tleParameters></data></segment></body></omm>
<omm id="CCSDS_OMM_VERS" version="2.0">
<header><CREATION_DATE/><ORIGINATOR/></header><body><segment><metadata><OBJECT_NAME>ONEWEB-0045</OBJECT_NAME><OBJECT_ID>2020-008W</OBJECT_ID><CENTER_NAME>EARTH</CENTER_NAME><REF_FRAME>TEME</REF_FRAME><TIME_SYSTEM>UTC</TIME_SYSTEM><MEAN_ELEMENT_THEORY>SGP4</MEAN_ELEMENT_THEORY></metadata><data><meanElements><EPOCH>2023-11-25T18:08:37.003776</EPOCH><MEAN_MOTION>13.11413676</MEAN_MOTION><ECCENTRICITY>.0001515</ECCENTRICITY><INCLINATION>87.8979</INCLINATION><RA_OF_ASC_NODE>206.7182</RA_OF_ASC_NODE><ARG_OF_PERICENTER>79.8637</ARG_OF_PERICENTER><MEAN_ANOMALY>280.2661</MEAN_ANOMALY></meanElements><tleParameters><EPHEMERIS_TYPE>0</EPHEMERIS_TYPE><CLASSIFICATION_TYPE>U</CLASSIFICATION_TYPE><NORAD_CAT_ID>45151</NORAD_CAT_ID><ELEMENT_SET_NO>999</ELEMENT_SET_NO><REV_AT_EPOCH>18793</REV_AT_EPOCH><BSTAR>-.60173E-3</BSTAR><MEAN_MOTION_DOT>-.201E-5</MEAN_MOTION_DOT><MEAN_MOTION_DDOT>0</MEAN_MOTION_DDOT></tleParameters></data></segment></body></omm>
<omm id="CCSDS_OMM_VERS" version="2.0">
<header><CREATION_DATE/><ORIGINATOR/></header><body><segment><metadata><OBJECT_NAME>ONEWEB-0047</OBJECT_NAME><OBJECT_ID>2020-008X</OBJECT_ID><CENTER_NAME>EARTH</CENTER_NAME><REF_FRAME>TEME</REF_FRAME><TIME_SYSTEM>UTC</TIME_SYSTEM><MEAN_ELEMENT_THEORY>SGP4</MEAN_ELEMENT_THEORY></metadata><data><meanElements><EPOCH>2023-11-25T18:16:18.327936</EPOCH><MEAN_MOTION>13.10376481</MEAN_MOTION><ECCENTRICITY>.0001693</ECCENTRICITY><INCLINATION>87.8926</INCLINATION><RA_OF_ASC_NODE>221.8491</RA_OF_ASC_NODE><ARG_OF_PERICENTER>67.8250</ARG_OF_PERICENTER><MEAN_ANOMALY>292.3056</MEAN_ANOMALY></meanElements><tleParameters><EPHEMERIS_TYPE>0</EPHEMERIS_TYPE><CLASSIFICATION_TYPE>U</CLASSIFICATION_TYPE><NORAD_CAT_ID>45152</NORAD_CAT_ID><ELEMENT_SET_NO>999</ELEMENT_SET_NO><REV_AT_EPOCH>18582</REV_AT_EPOCH><BSTAR>.11345E-2</BSTAR><MEAN_MOTION_DOT>.409E-5</MEAN_MOTION_DOT><MEAN_MOTION_DDOT>0</MEAN_MOTION_DDOT></tleParameters></data></segment></body></omm>
<omm id="CCSDS_OMM_VERS" version="2.0">
<header><CREATION_DATE/><ORIGINATOR/></header><body><segment><metadata><OBJECT_NAME>ONEWEB-0048</OBJECT_NAME><OBJECT_ID>2020-008Y</OBJECT_ID><CENTER_NAME>EARTH</CENTER_NAME><REF_FRAME>TEME</REF_FRAME><TIME_SYSTEM>UTC</TIME_SYSTEM><MEAN_ELEMENT_THEORY>SGP4</MEAN_ELEMENT_THEORY></metadata><data><meanElements><EPOCH>2023-11-25T18:09:16.800480</EPOCH><MEAN_MOTION>13.10374786</MEAN_MOTION><ECCENTRICITY>.0001634</ECCENTRICITY><INCLINATION>87.8929</INCLINATION><RA_OF_ASC_NODE>221.8614</RA_OF_ASC_NODE><ARG_OF_PERICENTER>69.5863</ARG_OF_PERICENTER><MEAN_ANOMALY>290.5440</MEAN_ANOMALY></meanElements><tleParameters><EPHEMERIS_TYPE>0</EPHEMERIS_TYPE><CLASSIFICATION_TYPE>U</CLASSIFICATION_TYPE><NORAD_CAT_ID>45153</NORAD_CAT_ID><ELEMENT_SET_NO>999</ELEMENT_SET_NO><REV_AT_EPOCH>18543</REV_AT_EPOCH><BSTAR>.27803E-3</BSTAR><MEAN_MOTION_DOT>.11E-5</MEAN_MOTION_DOT><MEAN_MOTION_DDOT>0</MEAN_MOTION_DDOT></tleParameters></data></segment></body></omm>
<omm id="CCSDS_OMM_VERS" version="2.0">
<header><CREATION_DATE/><ORIGINATOR/></header><body><segment><metadata><OBJECT_NAME>ONEWEB-0049</OBJECT_NAME><OBJECT_ID>2020-008Z</OBJECT_ID><CENTER_NAME>EARTH</CENTER_NAME><REF_FRAME>TEME</REF_FRAME><TIME_SYSTEM>UTC</TIME_SYSTEM><MEAN_ELEMENT_THEORY>SGP4</MEAN_ELEMENT_THEORY></metadata><data><meanElements><EPOCH>2023-11-25T18:11:36.314880</EPOCH><MEAN_MOTION>13.10375982</MEAN_MOTION><ECCENTRICITY>.0001771</ECCENTRICITY><INCLINATION>87.8934</INCLINATION><RA_OF_ASC_NODE>221.8326</RA_OF_ASC_NODE><ARG_OF_PERICENTER>70.4858</ARG_OF_PERICENTER><MEAN_ANOMALY>289.6460</MEAN_ANOMALY></meanElements><tleParameters><EPHEMERIS_TYPE>0</EPHEMERIS_TYPE><CLASSIFICATION_TYPE>U</CLASSIFICATION_TYPE><NORAD_CAT_ID>45154</NORAD_CAT_ID><ELEMENT_SET_NO>999</ELEMENT_SET_NO><REV_AT_EPOCH>18565</REV_AT_EPOCH><BSTAR>.75139E-3</BSTAR><MEAN_MOTION_DOT>.275E-5</MEAN_MOTION_DOT><MEAN_MOTION_DDOT>0</MEAN_MOTION_DDOT></tleParameters></data></segment></body></omm>
<omm id="CCSDS_OMM_VERS" version="2.0">
<header><CREATION_DATE/><ORIGINATOR/></header><body><segment><metadata><OBJECT_NAME>ONEWEB-0051</OBJECT_NAME><OBJECT_ID>2020-008AA</OBJECT_ID><CENTER_NAME>EARTH</CENTER_NAME><REF_FRAME>TEME</REF_FRAME><TIME_SYSTEM>UTC</TIME_SYSTEM><MEAN_ELEMENT_THEORY>SGP4</MEAN_ELEMENT_THEORY></metadata><data><meanElements><EPOCH>2023-11-25T16:16:24.802176</EPOCH><MEAN_MOTION>13.11418496</MEAN_MOTION><ECCENTRICITY>.0001468</ECCENTRICITY><INCLINATION>87.8991</INCLINATION><RA_OF_ASC_NODE>206.7703</RA_OF_ASC_NODE><ARG_OF_PERICENTER>84.7748</ARG_OF_PERICENTER><MEAN_ANOMALY>275.3547</MEAN_ANOMALY></meanElements><tleParameters><EPHEMERIS_TYPE>0</EPHEMERIS_TYPE><CLASSIFICATION_TYPE>U</CLASSIFICATION_TYPE><NORAD_CAT_ID>45155</NORAD_CAT_ID><ELEMENT_SET_NO>999</ELEMENT_SET_NO><REV_AT_EPOCH>18860</REV_AT_EPOCH><BSTAR>-.36221E-3</BSTAR><MEAN_MOTION_DOT>-.116E-5</MEAN_MOTION_DOT><MEAN_MOTION_DDOT>0</MEAN_MOTION_DDOT></tleParameters></data></segment></body></omm>
<omm id="CCSDS_OMM_VERS" version="2.0">
<header><CREATION_DATE/><ORIGINATOR/></header><body><segment><metadata><OBJECT_NAME>ONEWEB-0052</OBJECT_NAME><OBJECT_ID>2020-008AB</OBJECT_ID><CENTER_NAME>EARTH</CENTER_NAME><REF_FRAME>TEME</REF_FRAME><TIME_SYSTEM>UTC</TIME_SYSTEM><MEAN_ELEMENT_THEORY>SGP4</MEAN_ELEMENT_THEORY></metadata><data><meanElements><EPOCH>2023-11-25T18:06:54.399456</EPOCH><MEAN_MOTION>13.10375845</MEAN_MOTION><ECCENTRICITY>.0002403</ECCENTRICITY><INCLINATION>87.8934</INCLINATION><RA_OF_ASC_NODE>221.8178</RA_OF_ASC_NODE><ARG_OF_PERICENTER>62.5959</ARG_OF_PERICENTER><MEAN_ANOMALY>297.5413</MEAN_ANOMALY></meanElements><tleParameters><EPHEMERIS_TYPE>0</EPHEMERIS_TYPE><CLASSIFICATION_TYPE>U</CLASSIFICATION_TYPE><NORAD_CAT_ID>45156</NORAD_CAT_ID><ELEMENT_SET_NO>999</ELEMENT_SET_NO><REV_AT_EPOCH>18556</REV_AT_EPOCH><BSTAR>-.17735E-2</BSTAR><MEAN_MOTION_DOT>-.606E-5</MEAN_MOTION_DOT><MEAN_MOTION_DDOT>0</MEAN_MOTION_DDOT></tleParameters></data></segment></body></omm>

</ndm>
